{"type": "FeatureCollection", "features": [ {"type": "Feature", "properties": {"norad_id": 66687, "name": "TRANSPORTER-15X", "group": "last-30-days", "lat": 23.06242272098507, "lon": -104.44325250358153, "alt_km": 517.5625880560729, "timestamp": "2025-12-26T21:25:51.732746+00:00", "meta": {"OBJECT_NAME": "TRANSPORTER-15X", "OBJECT_ID": "2025-276X", "EPOCH": "2025-12-26T14:24:37.013760", "MEAN_MOTION": 15.16802705, "ECCENTRICITY": 0.00081041, "INCLINATION": 97.4384, "RA_OF_ASC_NODE": 72.081, "ARG_OF_PERICENTER": 42.047, "MEAN_ANOMALY": 318.1384, "EPHEMERIS_TYPE": 0, "CLASSIFICATION_TYPE": "U", "NORAD_CAT_ID": 66687, "ELEMENT_SET_NO": 999, "REV_AT_EPOCH": 422, "BSTAR": 0.00070615044, "MEAN_MOTION_DOT": 0.00013835, "MEAN_MOTION_DDOT": 0}, "tle": {"line1": "1 66687U 25276X   25360.60042840  .00013835  00000+0  70615-3 0  9996", "line2": "2 66687  97.4384  72.0810 0008104  42.0470 318.1384 15.16802705  4229"}}, "geometry": {"type": "Point", "coordinates": [-104.44325250358153, 23.06242272098507]}}, {"type": "Feature", "properties": {"norad_id": 66688, "name": "TRANSPORTER-15Y", "group": "last-30-days", "lat": -15.841687508795955, "lon": -109.72357955736366, "alt_km": 517.1929133750955, "timestamp": "2025-12-26T21:25:51.732757+00:00", "meta": {"OBJECT_NAME": "TRANSPORTER-15Y", "OBJECT_ID": "2025-276Y", "EPOCH": "2025-12-25T12:54:40.837824", "MEAN_MOTION": 15.17117879, "ECCENTRICITY": 0.0003764, "INCLINATION": 97.4426, "RA_OF_ASC_NODE": 71.0715, "ARG_OF_PERICENTER": 234.2435, "MEAN_ANOMALY": 125.8449, "EPHEMERIS_TYPE": 0, "CLASSIFICATION_TYPE": "U", "NORAD_CAT_ID": 66688, "ELEMENT_SET_NO": 999, "REV_AT_EPOCH": 406, "BSTAR": 0.00056854, "MEAN_MOTION_DOT": 0.00011216, "MEAN_MOTION_DDOT": 0}, "tle": {"line1": "1 66688U 25276Y   25359.53797266  .00011216  00000+0  56854-3 0  9996", "line2": "2 66688  97.4426  71.0715 0003764 234.2435 125.8449 15.17117879  4062"}}, "geometry": {"type": "Point", "coordinates": [-109.72357955736366, -15.841687508795955]}}, {"type": "Feature", "properties": {"norad_id": 66689, "name": "TRANSPORTER-15Z", "group": "last-30-days", "lat": 81.25194797307812, "lon": -49.36215113577472, "alt_km": 437.01043085046695, "timestamp": "2025-12-26T21:25:51.732769+00:00", "meta": {"OBJECT_NAME": "TRANSPORTER-15Z", "OBJECT_ID": "2025-276Z", "EPOCH": "2025-12-22T21:27:46.425312", "MEAN_MOTION": 15.23073772, "ECCENTRICITY": 0.00272271, "INCLINATION": 97.4409, "RA_OF_ASC_NODE": 68.4858, "ARG_OF_PERICENTER": 260.8557, "MEAN_ANOMALY": 98.9599, "EPHEMERIS_TYPE": 0, "CLASSIFICATION_TYPE": "U", "NORAD_CAT_ID": 66689, "ELEMENT_SET_NO": 999, "REV_AT_EPOCH": 366, "BSTAR": 0.086131248, "MEAN_MOTION_DOT": 0.02294864, "MEAN_MOTION_DDOT": 0}, "tle": {"line1": "1 66689U 25276Z   25356.89428733  .02294864  00000+0  86131-1 0  9996", "line2": "2 66689  97.4409  68.4858 0027227 260.8557  98.9599 15.23073772  3663"}}, "geometry": {"type": "Point", "coordinates": [-49.36215113577472, 81.25194797307812]}}, {"type": "Feature", "properties": {"norad_id": 66690, "name": "TRANSPORTER-15AA", "group": "last-30-days", "lat": -15.12097035936867, "lon": -109.63461746210399, "alt_km": 517.2610091657625, "timestamp": "2025-12-26T21:25:51.732779+00:00", "meta": {"OBJECT_NAME": "TRANSPORTER-15AA", "OBJECT_ID": "2025-276AA", "EPOCH": "2025-12-26T14:14:29.209632", "MEAN_MOTION": 15.17103378, "ECCENTRICITY": 0.00037328, "INCLINATION": 97.4388, "RA_OF_ASC_NODE": 72.0946, "ARG_OF_PERICENTER": 229.6339, "MEAN_ANOMALY": 130.4569, "EPHEMERIS_TYPE": 0, "CLASSIFICATION_TYPE": "U", "NORAD_CAT_ID": 66690, "ELEMENT_SET_NO": 999, "REV_AT_EPOCH": 422, "BSTAR": 0.00034885936, "MEAN_MOTION_DOT": 6.85e-05, "MEAN_MOTION_DDOT": 0}, "tle": {"line1": "1 66690U 25276AA  25360.59339363  .00006850  00000+0  34886-3 0  9996", "line2": "2 66690  97.4388  72.0946 0003732 229.6339 130.4569 15.17103378  4227"}}, "geometry": {"type": "Point", "coordinates": [-109.63461746210399, -15.12097035936867]}}, {"type": "Feature", "properties": {"norad_id": 66691, "name": "TRANSPORTER-15AB", "group": "last-30-days", "lat": -29.637603743034003, "lon": -111.86126835487708, "alt_km": 517.2857940118984, "timestamp": "2025-12-26T21:25:51.732789+00:00", "meta": {"OBJECT_NAME": "TRANSPORTER-15AB", "OBJECT_ID": "2025-276AB", "EPOCH": "2025-12-26T14:10:41.765952", "MEAN_MOTION": 15.17376545, "ECCENTRICITY": 0.00038401, "INCLINATION": 97.4412, "RA_OF_ASC_NODE": 72.1064, "ARG_OF_PERICENTER": 231.8002, "MEAN_ANOMALY": 128.2887, "EPHEMERIS_TYPE": 0, "CLASSIFICATION_TYPE": "U", "NORAD_CAT_ID": 66691, "ELEMENT_SET_NO": 999, "REV_AT_EPOCH": 422, "BSTAR": 0.00056182022, "MEAN_MOTION_DOT": 0.00011165, "MEAN_MOTION_DDOT": 0}, "tle": {"line1": "1 66691U 25276AB  25360.59076118  .00011165  00000+0  56182-3 0  9991", "line2": "2 66691  97.4412  72.1064 0003840 231.8002 128.2887 15.17376545  4226"}}, "geometry": {"type": "Point", "coordinates": [-111.86126835487708, -29.637603743034003]}}, {"type": "Feature", "properties": {"norad_id": 66692, "name": "TRANSPORTER-15AC", "group": "last-30-days", "lat": -47.7256898350397, "lon": -115.85129350933356, "alt_km": 519.2290095037597, "timestamp": "2025-12-26T21:25:51.732801+00:00", "meta": {"OBJECT_NAME": "TRANSPORTER-15AC", "OBJECT_ID": "2025-276AC", "EPOCH": "2025-12-26T04:36:08.314560", "MEAN_MOTION": 15.17447229, "ECCENTRICITY": 0.00017803, "INCLINATION": 97.4413, "RA_OF_ASC_NODE": 71.7258, "ARG_OF_PERICENTER": 246.4774, "MEAN_ANOMALY": 113.6272, "EPHEMERIS_TYPE": 0, "CLASSIFICATION_TYPE": "U", "NORAD_CAT_ID": 66692, "ELEMENT_SET_NO": 999, "REV_AT_EPOCH": 416, "BSTAR": 0.00030393663, "MEAN_MOTION_DOT": 6.017e-05, "MEAN_MOTION_DDOT": 0}, "tle": {"line1": "1 66692U 25276AC  25360.19176290  .00006017  00000+0  30394-3 0  9997", "line2": "2 66692  97.4413  71.7258 0001780 246.4774 113.6272 15.17447229  4164"}}, "geometry": {"type": "Point", "coordinates": [-115.85129350933356, -47.7256898350397]}}, {"type": "Feature", "properties": {"norad_id": 66693, "name": "TRANSPORTER-15AD", "group": "last-30-days", "lat": -50.72440627294799, "lon": -116.79642277601279, "alt_km": 517.614114274541, "timestamp": "2025-12-26T21:25:51.732811+00:00", "meta": {"OBJECT_NAME": "TRANSPORTER-15AD", "OBJECT_ID": "2025-276AD", "EPOCH": "2025-12-26T12:30:12.151008", "MEAN_MOTION": 15.17721629, "ECCENTRICITY": 0.00032598, "INCLINATION": 97.4366, "RA_OF_ASC_NODE": 72.029, "ARG_OF_PERICENTER": 256.8527, "MEAN_ANOMALY": 103.2343, "EPHEMERIS_TYPE": 0, "CLASSIFICATION_TYPE": "U", "NORAD_CAT_ID": 66693, "ELEMENT_SET_NO": 999, "REV_AT_EPOCH": 421, "BSTAR": 0.00074434167, "MEAN_MOTION_DOT": 0.00014968, "MEAN_MOTION_DDOT": 0}, "tle": {"line1": "1 66693U 25276AD  25360.52097397  .00014968  00000+0  74434-3 0  9992", "line2": "2 66693  97.4366  72.0290 0003259 256.8527 103.2343 15.17721629  4215"}}, "geometry": {"type": "Point", "coordinates": [-116.79642277601279, -50.72440627294799]}}, {"type": "Feature", "properties": {"norad_id": 66694, "name": "YAM-9", "group": "last-30-days", "lat": -59.178491091034026, "lon": -120.23965101888467, "alt_km": 519.0801637949608, "timestamp": "2025-12-26T21:25:51.732822+00:00", "meta": {"OBJECT_NAME": "YAM-9", "OBJECT_ID": "2025-276AE", "EPOCH": "2025-12-26T12:27:53.062560", "MEAN_MOTION": 15.17624345, "ECCENTRICITY": 0.00015838, "INCLINATION": 97.4414, "RA_OF_ASC_NODE": 72.0476, "ARG_OF_PERICENTER": 232.0177, "MEAN_ANOMALY": 128.0914, "EPHEMERIS_TYPE": 0, "CLASSIFICATION_TYPE": "U", "NORAD_CAT_ID": 66694, "ELEMENT_SET_NO": 999, "REV_AT_EPOCH": 421, "BSTAR": 0.00054799558, "MEAN_MOTION_DOT": 0.00010964, "MEAN_MOTION_DDOT": 0}, "tle": {"line1": "1 66694U 25276AE  25360.51936415  .00010964  00000+0  54800-3 0  9992", "line2": "2 66694  97.4414  72.0476 0001583 232.0177 128.0914 15.17624345  4217"}}, "geometry": {"type": "Point", "coordinates": [-120.23965101888467, -59.178491091034026]}}, {"type": "Feature", "properties": {"norad_id": 66695, "name": "IRIDE FM1", "group": "last-30-days", "lat": -51.77927310608941, "lon": 81.99104407070388, "alt_km": 519.1382294378545, "timestamp": "2025-12-26T21:25:51.732834+00:00", "meta": {"OBJECT_NAME": "IRIDE FM1", "OBJECT_ID": "2025-276AF", "EPOCH": "2025-12-26T10:35:22.917408", "MEAN_MOTION": 15.18322645, "ECCENTRICITY": 0.00019342, "INCLINATION": 97.4399, "RA_OF_ASC_NODE": 71.9951, "ARG_OF_PERICENTER": 145.0721, "MEAN_ANOMALY": 215.0641, "EPHEMERIS_TYPE": 0, "CLASSIFICATION_TYPE": "U", "NORAD_CAT_ID": 66695, "ELEMENT_SET_NO": 999, "REV_AT_EPOCH": 420, "BSTAR": 0.0009220155, "MEAN_MOTION_DOT": 0.00018888, "MEAN_MOTION_DDOT": 0}, "tle": {"line1": "1 66695U 25276AF  25360.44123747  .00018888  00000+0  92202-3 0  9992", "line2": "2 66695  97.4399  71.9951 0001934 145.0721 215.0641 15.18322645  4206"}}, "geometry": {"type": "Point", "coordinates": [81.99104407070388, -51.77927310608941]}}, {"type": "Feature", "properties": {"norad_id": 66696, "name": "IRIDE FM2", "group": "last-30-days", "lat": -43.95989002663104, "lon": -114.83979181645726, "alt_km": 518.6365192249204, "timestamp": "2025-12-26T21:25:51.732845+00:00", "meta": {"OBJECT_NAME": "IRIDE FM2", "OBJECT_ID": "2025-276AG", "EPOCH": "2025-12-26T14:06:53.384832", "MEAN_MOTION": 15.17461225, "ECCENTRICITY": 0.00025202, "INCLINATION": 97.4382, "RA_OF_ASC_NODE": 72.0986, "ARG_OF_PERICENTER": 247.3017, "MEAN_ANOMALY": 112.7951, "EPHEMERIS_TYPE": 0, "CLASSIFICATION_TYPE": "U", "NORAD_CAT_ID": 66696, "ELEMENT_SET_NO": 999, "REV_AT_EPOCH": 422, "BSTAR": 0.00031870112, "MEAN_MOTION_DOT": 6.315e-05, "MEAN_MOTION_DDOT": 0}, "tle": {"line1": "1 66696U 25276AG  25360.58811788  .00006315  00000+0  31870-3 0  9993", "line2": "2 66696  97.4382  72.0986 0002520 247.3017 112.7951 15.17461225  4221"}}, "geometry": {"type": "Point", "coordinates": [-114.83979181645726, -43.95989002663104]}}]}